ORBCOMM FM24            
1 25478U 98053D   24262.06826936  .00003797  00000+0  13314-2 0  9996
2 25478  45.0068 117.9026 0000892 305.4561  54.6203 14.36422415358299
ORBCOMM FM25            
1 25479U 98053E   24262.03613792  .00003560  00000+0  12517-2 0  9990
2 25479  45.0059 116.3066 0003315 324.0235  36.0389 14.36403227358586
ORBCOMM FM26            
1 25480U 98053F   24262.02810559  .00002622  00000+0  94738-3 0  9995
2 25480  45.0058 111.0627 0005408 345.8203  14.2492 14.35722647358518
ORBCOMM FM27            
1 25481U 98053G   24262.09491273  .00003326  00000+0  11728-2 0  9990
2 25481  45.0043 116.2868 0000688 118.7621 241.3296 14.36397161358529
ORBCOMM FM28            
1 25482U 98053H   24262.53078114  .00003006  00000+0  10568-2 0  9991
2 25482  45.0056  52.2774 0002490  15.0109 345.0812 14.36767211359267
ORBCOMM FM30            
1 25980U 99065A   24262.46474963  .00002847  00000+0  10217-2 0  9995
2 25980  45.0309 294.6606 0003854  80.4177 279.7106 14.35873070295373
ORBCOMM FM31            
1 25981U 99065B   24262.36150476  .00002546  00000+0  91914-3 0  9995
2 25981  45.0219 288.7553 0001270 133.8414 226.2539 14.35851750294913
ORBCOMM FM32            
1 25982U 99065C   24262.50338061  .00002638  00000+0  96934-3 0  9999
2 25982  45.0152 302.8123 0003478 127.1431 232.9734 14.34869717295551
